[{"OBJECT_NAME":"UHETSAT","OBJECT_ID":"2023-185E","EPOCH":"2026-03-09T22:39:26.455680","MEAN_MOTION":15.29797662,"ECCENTRICITY":0.00118435,"INCLINATION":97.3584,"RA_OF_ASC_NODE":137.3576,"ARG_OF_PERICENTER":307.7346,"MEAN_ANOMALY":52.2821,"EPHEMERIS_TYPE":0,"CLASSIFICATION_TYPE":"U","NORAD_CAT_ID":58466,"ELEMENT_SET_NO":999,"REV_AT_EPOCH":12611,"BSTAR":0.00030513019,"MEAN_MOTION_DOT":8.749e-5,"MEAN_MOTION_DDOT":0},{"OBJECT_NAME":"STARLINK-34594","OBJECT_ID":"2025-167L","EPOCH":"2026-03-09T03:41:39.519168","MEAN_MOTION":15.30228068,"ECCENTRICITY":0.00018354,"INCLINATION":53.1625,"RA_OF_ASC_NODE":29.445,"ARG_OF_PERICENTER":84.837,"MEAN_ANOMALY":275.284,"EPHEMERIS_TYPE":0,"CLASSIFICATION_TYPE":"U","NORAD_CAT_ID":65088,"ELEMENT_SET_NO":999,"REV_AT_EPOCH":3339,"BSTAR":0.0014108964,"MEAN_MOTION_DOT":0.00041699,"MEAN_MOTION_DDOT":0}]
